NORAD_CAT_ID,OBJECT_NAME,OBJECT_TYPE,EPOCH,MEAN_MOTION,ECCENTRICITY,INCLINATION,RA_OF_ASC_NODE,ARG_OF_PERICENTER,MEAN_ANOMALY,BSTAR,MEAN_MOTION_DOT,MEAN_MOTION_DDOT,TLE_LINE0,TLE_LINE1,TLE_LINE2,SEMIMAJOR_AXIS,PERIOD,APOGEE,PERIGEE,DECAYED
54794.0,STARLINK-5392,PAYLOAD,2023-09-28 15:15:47,15.12112946,0.0001268,53.2203,85.1706,100.0161,260.0975,4.3969e-05,4.69e-06,0.0,0 STARLINK-5392,1 54794U 22175AN  23271.63596601  .00000469  00000-0  43969-4 0  9991,2 54794  53.2203  85.1706 0001268 100.0161 260.0975 15.12112946 45212,6907.894,95.231,530.635,528.883,0.0
54794.0,STARLINK-5392,PAYLOAD,2023-09-28 16:50:58,15.12111444,0.0001268,53.2202,84.8723,104.8052,255.3082,3.2049e-05,2.61e-06,0.0,0 STARLINK-5392,1 54794U 22175AN  23271.70206363  .00000261  00000-0  32049-4 0  9999,2 54794  53.2202  84.8723 0001268 104.8052 255.3082 15.12111444 45226,6907.899,95.231,530.64,528.888,0.0
54794.0,STARLINK-5392,PAYLOAD,2023-09-28 21:36:30,15.12107759,0.0001175,53.2203,83.9792,91.1302,268.9826,8.0155e-06,-1.58e-06,0.0,0 STARLINK-5392,1 54794U 22175AN  23271.90035712 -.00000158  00000-0  80155-5 0  9997,2 54794  53.2203  83.9792 0001175  91.1302 268.9826 15.12107759 43099,6907.91,95.231,530.587,528.963,0.0
54794.0,STARLINK-5392,PAYLOAD,2023-09-29 11:53:07,15.1211508,0.0001101,53.2206,81.296,90.1965,269.9154,-3.2644e-05,-8.66e-06,0.0,0 STARLINK-5392,1 54794U 22175AN  23272.49522330 -.00000866  00000-0 -32644-4 0  9995,2 54794  53.2206  81.2960 0001101  90.1965 269.9154 15.12115080 45344,6907.888,95.231,530.513,528.992,0.0
54794.0,STARLINK-5392,PAYLOAD,2023-09-29 18:13:49,15.12121307,0.0001216,53.2211,80.1034,89.99,270.1233,2.045e-05,5.9e-07,0.0,0 STARLINK-5392,1 54794U 22175AN  23272.75960222  .00000059  00000-0  20450-4 0  9994,2 54794  53.2211  80.1034 0001216  89.9900 270.1233 15.12121307 43228,6907.869,95.23,530.574,528.894,0.0
54794.0,STARLINK-5392,PAYLOAD,2023-09-30 18:01:31,15.12110502,0.0001199,53.2201,75.63,83.0913,277.0217,4.8727e-06,-2.12e-06,0.0,0 STARLINK-5392,1 54794U 22175AN  23273.75105510 -.00000212  00000-0  48727-5 0  9996,2 54794  53.2201  75.6300 0001199  83.0913 277.0217 15.12110502 43370,6907.902,95.231,530.595,528.939,0.0
54794.0,STARLINK-5392,PAYLOAD,2023-10-01 03:32:35,15.12115844,0.000123,53.2205,73.8401,86.5136,273.5998,5.6225e-05,6.82e-06,0.0,0 STARLINK-5392,1 54794U 22175AN  23274.14762796  .00000682  00000-0  56225-4 0  9996,2 54794  53.2205  73.8401 0001230  86.5136 273.5998 15.12115844 43435,6907.886,95.231,530.6,528.901,0.0
54794.0,STARLINK-5392,PAYLOAD,2023-10-01 17:49:12,15.1210701,0.0001298,53.2206,71.1564,87.0129,273.1014,-9.9056e-05,-2.022e-05,0.0,0 STARLINK-5392,1 54794U 22175AN  23274.74250852 -.00002022  00000-0 -99056-4 0  9998,2 54794  53.2206  71.1564 0001298  87.0129 273.1014 15.12107010 43520,6907.912,95.231,530.674,528.881,0.0
54794.0,STARLINK-5392,PAYLOAD,2023-10-02 03:20:16,15.12111967,0.0001311,53.2212,69.3669,82.7988,277.3155,-2.8142e-06,-3.46e-06,0.0,0 STARLINK-5392,1 54794U 22175AN  23275.13908126 -.00000346  00000-0 -28142-5 0  9992,2 54794  53.2212  69.3669 0001311  82.7988 277.3155 15.12111967 43587,6907.897,95.231,530.668,528.857,0.0
54794.0,STARLINK-5392,PAYLOAD,2023-10-02 19:12:02,15.12198798,0.0001175,53.2212,66.3843,60.6243,299.4867,-0.00086501,-0.0001537,0.0,0 STARLINK-5392,1 54794U 22175AN  23275.80002500 -.00015370  00000-0 -86501-3 0  9991,2 54794  53.2212  66.3843 0001175  60.6243 299.4867 15.12198798 43688,6907.633,95.226,530.31,528.686,0.0
54794.0,STARLINK-5392,PAYLOAD,2023-10-03 03:07:57,15.12117472,0.0001319,53.2213,64.8938,83.0691,277.0453,-2.6798e-05,-7.64e-06,0.0,0 STARLINK-5392,1 54794U 22175AN  23276.13052373 -.00000764  00000-0 -26798-4 0  9995,2 54794  53.2213  64.8938 0001319  83.0691 277.0453 15.12117472 43732,6907.881,95.231,530.657,528.834,0.0
54794.0,STARLINK-5392,PAYLOAD,2023-10-03 14:14:12,15.12107426,0.0001304,53.2212,62.8055,81.3449,278.7693,1.0538e-05,-1.14e-06,0.0,0 STARLINK-5392,1 54794U 22175AN  23276.59320418 -.00000114  00000-0  10538-4 0  9996,2 54794  53.2212  62.8055 0001304  81.3449 278.7693 15.12107426 45964,6907.911,95.231,530.677,528.875,0.0
54794.0,STARLINK-5392,PAYLOAD,2023-10-03 17:24:34,15.12109882,0.0001338,53.2209,62.2095,81.1913,278.9232,4.3476e-05,4.6e-06,0.0,0 STARLINK-5392,1 54794U 22175AN  23276.72539481  .00000460  00000-0  43476-4 0  9993,2 54794  53.2209  62.2095 0001338  81.1913 278.9232 15.12109882 45980,6907.904,95.231,530.693,528.844,0.0
54794.0,STARLINK-5392,PAYLOAD,2023-10-04 14:01:52,15.12124815,0.0001402,53.2209,58.3323,80.3611,279.7541,1.1845e-05,-9.1e-07,0.0,0 STARLINK-5392,1 54794U 22175AN  23277.58463910 -.00000091  00000-0  11845-4 0  9997,2 54794  53.2209  58.3323 0001402  80.3611 279.7541 15.12124815 46119,6907.858,95.23,530.692,528.755,0.0
54794.0,STARLINK-5392,PAYLOAD,2023-10-04 18:47:25,15.12134008,0.0001423,53.2211,57.438,76.3936,283.7216,-0.00023787,-4.441e-05,0.0,0 STARLINK-5392,1 54794U 22175AN  23277.78293259 -.00004441  00000-0 -23787-3 0  9997,2 54794  53.2211  57.4380 0001423  76.3936 283.7216 15.12134008 43984,6907.83,95.23,530.678,528.712,0.0
54794.0,STARLINK-5392,PAYLOAD,2023-10-05 09:04:01,15.12114211,0.0001347,53.2212,54.7541,80.1965,279.918,3.2861e-05,2.75e-06,0.0,0 STARLINK-5392,1 54794U 22175AN  23278.37780072  .00000275  00000-0  32861-4 0  9990,2 54794  53.2212  54.7541 0001347  80.1965 279.9180 15.12114211 44076,6907.89,95.231,530.686,528.825,0.0
54794.0,STARLINK-5392,PAYLOAD,2023-10-05 13:49:33,15.12151286,0.0001554,53.2208,53.8615,69.404,290.712,-0.00034669,-6.338e-05,0.0,0 STARLINK-5392,1 54794U 22175AN  23278.57607902 -.00006338  00000-0 -34669-3 0  9997,2 54794  53.2208  53.8615 0001554  69.4040 290.7120 15.12151286 46268,6907.778,95.229,530.716,528.569,0.0
54794.0,STARLINK-5392,PAYLOAD,2023-10-05 15:24:44,15.12120199,0.0001331,53.2211,53.5617,79.3734,280.7409,6.383e-05,8.15e-06,0.0,0 STARLINK-5392,1 54794U 22175AN  23278.64218082  .00000815  00000-0  63830-4 0  9997,2 54794  53.2211  53.5617 0001331  79.3734 280.7409 15.12120199 44114,6907.872,95.231,530.657,528.818,0.0
54794.0,STARLINK-5392,PAYLOAD,2023-10-06 13:37:14,15.12118365,0.0001434,53.2209,49.3881,74.1092,286.0059,4.9004e-05,5.56e-06,0.0,0 STARLINK-5392,1 54794U 22175AN  23279.56752818  .00000556  00000-0  49004-4 0  9998,2 54794  53.2209  49.3881 0001434  74.1092 286.0059 15.12118365 46418,6907.878,95.231,530.733,528.752,0.0
54794.0,STARLINK-5392,PAYLOAD,2023-10-06 15:12:25,15.12117526,0.0001432,53.2211,49.0901,73.4331,286.682,3.9325e-05,3.88e-06,0.0,0 STARLINK-5392,1 54794U 22175AN  23279.63362542  .00000388  00000-0  39325-4 0  9995,2 54794  53.2211  49.0901 0001432  73.4331 286.6820 15.12117526 46428,6907.88,95.231,530.735,528.756,0.0
54794.0,STARLINK-5392,PAYLOAD,2023-10-07 08:39:23,15.1210961,0.0001513,53.2228,45.8112,79.2438,280.8726,-1.9987e-05,-6.46e-06,0.0,0 STARLINK-5392,1 54794U 22175AN  23280.36069324 -.00000646  00000-0 -19987-4 0  9990,2 54794  53.2228  45.8112 0001513  79.2438 280.8726 15.12109610 44374,6907.905,95.231,530.815,528.724,0.0
54794.0,STARLINK-5392,PAYLOAD,2023-10-07 13:24:56,15.1211161,0.0001463,53.2215,44.9156,87.4279,272.6882,-6.0636e-05,-1.354e-05,0.0,0 STARLINK-5392,1 54794U 22175AN  23280.55898255 -.00001354  00000-0 -60636-4 0  9998,2 54794  53.2215  44.9156 0001463  87.4279 272.6882 15.12111610 46564,6907.898,95.231,530.774,528.753,0.0
54794.0,STARLINK-5392,PAYLOAD,2023-10-07 15:00:06,15.12109969,0.0001397,53.2212,44.6184,81.1401,278.975,-5.6696e-05,-1.285e-05,0.0,0 STARLINK-5392,1 54794U 22175AN  23280.62507973 -.00001285  00000-0 -56696-4 0  9994,2 54794  53.2212  44.6184 0001397  81.1401 278.9750 15.12109969 46571,6907.903,95.231,530.733,528.803,0.0
54794.0,STARLINK-5392,PAYLOAD,2023-10-08 13:12:35,15.12119634,0.0001445,53.2218,40.4445,85.0224,275.0934,6.8811e-05,9.02e-06,0.0,0 STARLINK-5392,1 54794U 22175AN  23281.55041599  .00000902  00000-0  68811-4 0  9999,2 54794  53.2218  40.4445 0001445  85.0224 275.0934 15.12119634 46719,6907.874,95.231,530.737,528.741,0.0
54794.0,STARLINK-5392,PAYLOAD,2023-10-08 17:58:07,15.12121268,0.0001424,53.2216,39.5498,83.7234,276.3922,7.5453e-05,1.018e-05,0.0,0 STARLINK-5392,1 54794U 22175AN  23281.74870324  .00001018  00000-0  75453-4 0  9995,2 54794  53.2216  39.5498 0001424  83.7234 276.3922 15.12121268 44587,6907.869,95.23,530.718,528.75,0.0
54794.0,STARLINK-5392,PAYLOAD,2023-10-08 19:33:18,15.12120782,0.0001388,53.221,39.2511,82.8833,277.2319,6.873e-05,9e-06,0.0,0 STARLINK-5392,1 54794U 22175AN  23281.81479982  .00000900  00000-0  68730-4 0  9997,2 54794  53.2210  39.2511 0001388  82.8833 277.2319 15.12120782 46759,6907.87,95.23,530.694,528.777,0.0
54794.0,STARLINK-5392,PAYLOAD,2023-10-09 14:35:27,15.12111601,0.0001408,53.2212,35.6714,86.6423,273.4732,4.3365e-05,4.58e-06,0.0,0 STARLINK-5392,1 54794U 22175AN  23282.60796250  .00000458  00000-0  43365-4 0  9990,2 54794  53.2212  35.6714 0001408  86.6423 273.4732 15.12111601 46876,6907.898,95.231,530.736,528.791,0.0
54794.0,STARLINK-5392,PAYLOAD,2023-10-09 17:45:49,15.12112601,0.0001343,53.2211,35.0753,83.4323,276.6824,1.4764e-05,-4e-07,0.0,0 STARLINK-5392,1 54794U 22175AN  23282.74015571 -.00000040  00000-0  14764-4 0  9994,2 54794  53.2211  35.0753 0001343  83.4323 276.6824 15.12112601 44735,6907.895,95.231,530.688,528.833,0.0
54794.0,STARLINK-5392,PAYLOAD,2023-10-09 19:21:00,15.12113884,0.0001346,53.2211,34.7769,83.4001,276.7146,3.6156e-05,3.33e-06,0.0,0 STARLINK-5392,1 54794U 22175AN  23282.80625045  .00000333  00000-0  36156-4 0  9997,2 54794  53.2211  34.7769 0001346  83.4001 276.7146 15.12113884 46907,6907.891,95.231,530.686,528.827,0.0
54794.0,STARLINK-5392,PAYLOAD,2023-10-10 11:12:46,15.12124728,0.0001351,53.2205,31.7946,84.7208,275.3939,9.3622e-06,-1.34e-06,0.0,0 STARLINK-5392,1 54794U 22175AN  23283.46720662 -.00000134  00000-0  93622-5 0  9993,2 54794  53.2205  31.7946 0001351  84.7208 275.3939 15.12124728 44848,6907.858,95.23,530.657,528.79,0.0
